NORAD_CAT_ID,OBJECT_NAME,OBJECT_TYPE,EPOCH,MEAN_MOTION,ECCENTRICITY,INCLINATION,RA_OF_ASC_NODE,ARG_OF_PERICENTER,MEAN_ANOMALY,BSTAR,MEAN_MOTION_DOT,MEAN_MOTION_DDOT,TLE_LINE0,TLE_LINE1,TLE_LINE2,SEMIMAJOR_AXIS,PERIOD,APOGEE,PERIGEE,DECAYED
53612.0,STARLINK-4658,PAYLOAD,2024-02-16 14:20:48,15.08852648,0.0001578,53.2208,10.4711,89.1755,270.9418,-0.000224,-3.852e-05,0.0,0 STARLINK-4658,1 53612U 22104AA  24047.59778274 -.00003852  00000-0 -22400-3 0  9993,2 53612  53.2208  10.4711 0001578  89.1755 270.9418 15.08852648 82096,6917.842,95.437,540.798,538.615,0.0
53612.0,STARLINK-4658,PAYLOAD,2024-02-17 03:03:54,15.08833807,0.0001494,53.2206,8.0899,105.9177,254.198,-1.4885e-05,-5.25e-06,0.0,0 STARLINK-4658,1 53612U 22104AA  24048.12771365 -.00000525  00000-0 -14885-4 0  9990,2 53612  53.2206   8.0899 0001494 105.9177 254.1980 15.08833807 81606,6917.899,95.438,540.798,538.731,0.0
53612.0,STARLINK-4658,PAYLOAD,2024-02-17 06:14:38,15.08881794,0.0001543,53.221,7.4976,94.1193,265.9975,-0.0005314,-8.745e-05,0.0,0 STARLINK-4658,1 53612U 22104AA  24048.26017100 -.00008745  00000-0 -53140-3 0  9993,2 53612  53.2210   7.4976 0001543  94.1193 265.9975 15.08881794 81626,6917.753,95.435,540.685,538.55,0.0
53612.0,STARLINK-4658,PAYLOAD,2024-02-17 14:11:35,15.08848544,0.0001717,53.2211,6.0073,92.5921,267.5268,-7.6395e-06,-4.1e-06,0.0,0 STARLINK-4658,1 53612U 22104AA  24048.59138481 -.00000410  00000-0 -76395-5 0  9995,2 53612  53.2211   6.0073 0001717  92.5921 267.5268 15.08848544 82242,6917.854,95.437,540.907,538.531,0.0
53612.0,STARLINK-4658,PAYLOAD,2024-02-18 01:19:18,15.08834667,0.0001641,53.2213,3.9253,86.7559,273.3621,0.00024902,3.677e-05,0.0,0 STARLINK-4658,1 53612U 22104AA  24049.05507145  .00003677  00000-0  24902-3 0  9995,2 53612  53.2213   3.9253 0001641  86.7559 273.3621 15.08834667 81741,6917.897,95.438,540.897,538.626,0.0
53612.0,STARLINK-4658,PAYLOAD,2024-02-18 06:05:26,15.08854271,0.0001489,53.2201,3.0345,88.7609,271.3553,0.00024801,3.663e-05,0.0,0 STARLINK-4658,1 53612U 22104AA  24049.25377777  .00003663  00000-0  24801-3 0  9996,2 53612  53.2201   3.0345 0001489  88.7609 271.3553 15.08854271 81777,6917.837,95.437,540.732,538.672,0.0
53612.0,STARLINK-4658,PAYLOAD,2024-02-18 14:02:22,15.08846473,0.00014,53.2196,1.5467,94.3583,265.7569,0.00012857,1.759e-05,0.0,0 STARLINK-4658,1 53612U 22104AA  24049.58498389  .00001759  00000-0  12857-3 0  9997,2 53612  53.2196   1.5467 0001400  94.3583 265.7569 15.08846473 82393,6917.861,95.437,540.694,538.757,0.0
53612.0,STARLINK-4658,PAYLOAD,2024-02-18 20:23:55,15.08840283,0.0002045,53.2195,0.3585,89.3853,270.7374,0.00014567,2.031e-05,0.0,0 STARLINK-4658,1 53612U 22104AA  24049.84995052  .00002031  00000-0  14567-3 0  9999,2 53612  53.2195   0.3585 0002045  89.3853 270.7374 15.08840283 81864,6917.88,95.438,541.159,538.33,0.0
53612.0,STARLINK-4658,PAYLOAD,2024-02-19 05:56:13,15.08850252,0.0001542,53.2202,358.5705,97.4107,262.7061,0.00015164,2.127e-05,0.0,0 STARLINK-4658,1 53612U 22104AA  24050.24738414  .00002127  00000-0  15164-3 0  9992,2 53612  53.2202 358.5705 0001542  97.4107 262.7061 15.08850252 81926,6917.849,95.437,540.781,538.647,0.0
53612.0,STARLINK-4658,PAYLOAD,2024-02-19 13:53:10,15.0883516,0.0001368,53.2199,357.0836,97.3042,262.8106,-6.5728e-05,-1.334e-05,0.0,0 STARLINK-4658,1 53612U 22104AA  24050.57859135 -.00001334  00000-0 -65728-4 0  9995,2 53612  53.2199 357.0836 0001368  97.3042 262.8106 15.08835160 82544,6917.895,95.438,540.707,538.814,0.0
53612.0,STARLINK-4658,PAYLOAD,2024-02-20 05:47:01,15.08846471,0.0001364,53.2188,354.1097,108.0545,252.0596,-3.2817e-05,-8.1e-06,0.0,0 STARLINK-4658,1 53612U 22104AA  24051.24098957 -.00000810  00000-0 -32817-4 0  9998,2 53612  53.2188 354.1097 0001364 108.0545 252.0596 15.08846471 82072,6917.861,95.437,540.669,538.782,0.0
53612.0,STARLINK-4658,PAYLOAD,2024-02-20 13:43:57,15.08844951,0.000137,53.2191,352.6233,106.6212,253.493,-5.5706e-05,-1.175e-05,0.0,0 STARLINK-4658,1 53612U 22104AA  24051.57219048 -.00001175  00000-0 -55706-4 0  9997,2 53612  53.2191 352.6233 0001370 106.6212 253.4930 15.08844951 82699,6917.865,95.437,540.678,538.783,0.0
53612.0,STARLINK-4658,PAYLOAD,2024-02-20 23:16:16,15.08840078,0.0001246,53.2179,350.8415,101.2706,258.8426,0.00017871,2.557e-05,0.0,0 STARLINK-4658,1 53612U 22104AA  24051.96963023  .00002557  00000-0  17871-3 0  9992,2 53612  53.2179 350.8415 0001246 101.2706 258.8426 15.08840078 82750,6917.88,95.438,540.607,538.883,0.0
53612.0,STARLINK-4658,PAYLOAD,2024-02-21 02:27:02,15.08849361,0.0001332,53.2183,350.2456,105.3249,254.7891,0.00023552,3.463e-05,0.0,0 STARLINK-4658,1 53612U 22104AA  24052.10210844  .00003463  00000-0  23552-3 0  9995,2 53612  53.2183 350.2456 0001332 105.3249 254.7891 15.08849361 82774,6917.852,95.437,540.638,538.795,0.0
53612.0,STARLINK-4658,PAYLOAD,2024-02-22 00:42:26,15.08837157,0.0001544,53.2202,346.0871,64.6249,295.4903,0.00012909,1.767e-05,0.0,0 STARLINK-4658,1 53612U 22104AA  24053.02947780  .00001767  00000-0  12909-3 0  9992,2 53612  53.2202 346.0871 0001544  64.6249 295.4903 15.08837157 82341,6917.889,95.438,540.822,538.686,0.0
53612.0,STARLINK-4658,PAYLOAD,2024-02-22 11:50:08,15.08842635,0.0001352,53.2195,343.9997,94.3601,265.7546,0.0001069,1.414e-05,0.0,0 STARLINK-4658,1 53612U 22104AA  24053.49315247  .00001414  00000-0  10690-3 0  9994,2 53612  53.2195 343.9997 0001352  94.3601 265.7546 15.08842635 82986,6917.872,95.437,540.673,538.802,0.0
53612.0,STARLINK-4658,PAYLOAD,2024-02-22 22:57:50,15.08839717,0.0001442,53.2204,341.9194,101.8782,258.2372,3.8075e-05,3.18e-06,0.0,0 STARLINK-4658,1 53612U 22104AA  24053.95683576  .00000318  00000-0  38075-4 0  9998,2 53612  53.2204 341.9194 0001442 101.8782 258.2372 15.08839717 83058,6917.881,95.438,540.744,538.749,0.0
53612.0,STARLINK-4658,PAYLOAD,2024-02-23 02:08:36,15.08845508,0.0001597,53.2198,341.3247,107.3639,252.7528,2.4162e-05,9.7e-07,0.0,0 STARLINK-4658,1 53612U 22104AA  24054.08931207  .00000097  00000-0  24162-4 0  9996,2 53612  53.2198 341.3247 0001597 107.3639 252.7528 15.08845508 82502,6917.864,95.437,540.833,538.624,0.0
53612.0,STARLINK-4658,PAYLOAD,2024-02-23 05:19:22,15.08845532,0.0001768,53.22,340.7291,115.0243,245.0933,8.6902e-05,1.095e-05,0.0,0 STARLINK-4658,1 53612U 22104AA  24054.22179016  .00001095  00000-0  86902-4 0  9993,2 53612  53.2200 340.7291 0001768 115.0243 245.0933 15.08845532 83092,6917.863,95.437,540.952,538.505,0.0
53612.0,STARLINK-4658,PAYLOAD,2024-02-23 22:48:37,15.08833832,0.000171,53.2186,337.4545,108.7347,251.3831,9.0317e-05,1.149e-05,0.0,0 STARLINK-4658,1 53612U 22104AA  24054.95043942  .00001149  00000-0  90317-4 0  9996,2 53612  53.2186 337.4545 0001710 108.7347 251.3831 15.08833832 83201,6917.899,95.438,540.947,538.581,0.0
53612.0,STARLINK-4658,PAYLOAD,2024-02-24 03:34:47,15.08838541,0.0001625,53.2191,336.5615,108.4751,251.6418,5.9237e-05,6.55e-06,0.0,0 STARLINK-4658,1 53612U 22104AA  24055.14915688  .00000655  00000-0  59237-4 0  9990,2 53612  53.2191 336.5615 0001625 108.4751 251.6418 15.08838541 82661,6917.885,95.438,540.874,538.626,0.0
53612.0,STARLINK-4658,PAYLOAD,2024-02-24 11:31:43,15.0883675,0.0001547,53.2188,335.0757,98.5948,261.5219,0.00011378,1.523e-05,0.0,0 STARLINK-4658,1 53612U 22104AA  24055.48035932  .00001523  00000-0  11378-3 0  9990,2 53612  53.2188 335.0757 0001547  98.5948 261.5219 15.08836750 83286,6917.89,95.438,540.826,538.685,0.0
53612.0,STARLINK-4658,PAYLOAD,2024-02-25 11:22:29,15.08853345,0.0001597,53.219,330.6156,82.3311,277.7862,6.0761e-05,6.79e-06,0.0,0 STARLINK-4658,1 53612U 22104AA  24056.47394848  .00000679  00000-0  60761-4 0  9996,2 53612  53.2190 330.6156 0001597  82.3311 277.7862 15.08853345 82868,6917.84,95.437,540.809,538.6,0.0
53612.0,STARLINK-4658,PAYLOAD,2024-02-25 19:19:25,15.08843909,0.0001873,53.2174,329.1339,86.7263,273.3944,0.0001128,1.508e-05,0.0,0 STARLINK-4658,1 53612U 22104AA  24056.80515535  .00001508  00000-0  11280-3 0  9994,2 53612  53.2174 329.1339 0001873  86.7263 273.3944 15.08843909 82911,6917.868,95.437,541.029,538.438,0.0
53612.0,STARLINK-4658,PAYLOAD,2024-02-25 22:30:11,15.08848837,0.0001448,53.218,328.5397,93.1287,266.9871,0.00014271,1.985e-05,0.0,0 STARLINK-4658,1 53612U 22104AA  24056.93763040  .00001985  00000-0  14271-3 0  9996,2 53612  53.2180 328.5397 0001448  93.1287 266.9871 15.08848837 83509,6917.853,95.437,540.72,538.717,0.0
53612.0,STARLINK-4658,PAYLOAD,2024-02-26 03:16:20,15.08854008,0.0001405,53.218,327.6473,87.6153,272.5,0.00018388,2.641e-05,0.0,0 STARLINK-4658,1 53612U 22104AA  24057.13634495  .00002641  00000-0  18388-3 0  9993,2 53612  53.2180 327.6473 0001405  87.6153 272.5000 15.08854008 82960,6917.838,95.437,540.675,538.731,0.0
53612.0,STARLINK-4658,PAYLOAD,2024-02-26 22:20:59,15.08837906,0.0001658,53.2178,324.0793,76.3197,283.798,-3.7802e-05,-8.9e-06,0.0,0 STARLINK-4658,1 53612U 22104AA  24057.93124221 -.00000890  00000-0 -37802-4 0  9991,2 53612  53.2178 324.0793 0001658  76.3197 283.7980 15.08837906 83652,6917.887,95.438,540.899,538.605,0.0
53612.0,STARLINK-4658,PAYLOAD,2024-02-26 23:56:22,15.08834451,0.00016,53.2193,323.7844,80.9452,279.1721,5.7946e-05,6.34e-06,0.0,0 STARLINK-4658,1 53612U 22104AA  24057.99747974  .00000634  00000-0  57946-4 0  9998,2 53612  53.2193 323.7844 0001600  80.9452 279.1721 15.08834451 83096,6917.897,95.438,540.869,538.655,0.0
53612.0,STARLINK-4658,PAYLOAD,2024-02-27 11:04:04,15.08835881,0.0001452,53.2181,321.7024,82.4062,277.7095,8.1815e-05,1.014e-05,0.0,0 STARLINK-4658,1 53612U 22104AA  24058.46115890  .00001014  00000-0  81815-4 0  9992,2 53612  53.2181 321.7024 0001452  82.4062 277.7095 15.08835881 83737,6917.893,95.438,540.762,538.754,0.0
53612.0,STARLINK-4658,PAYLOAD,2024-02-27 22:11:46,15.08836558,0.0001404,53.2176,319.6209,87.146,272.9693,8.103e-05,1.002e-05,0.0,0 STARLINK-4658,1 53612U 22104AA  24058.92483994  .00001002  00000-0  81030-4 0  9992,2 53612  53.2176 319.6209 0001404  87.1460 272.9693 15.08836558 83804,6917.891,95.438,540.727,538.785,0.0
